NORAD_CAT_ID,OBJECT_NAME,OBJECT_TYPE,EPOCH,MEAN_MOTION,ECCENTRICITY,INCLINATION,RA_OF_ASC_NODE,ARG_OF_PERICENTER,MEAN_ANOMALY,BSTAR,MEAN_MOTION_DOT,MEAN_MOTION_DDOT,TLE_LINE0,TLE_LINE1,TLE_LINE2,SEMIMAJOR_AXIS,PERIOD,APOGEE,PERIGEE,DECAYED
53912.0,STARLINK-5059,PAYLOAD,2023-02-15 21:53:22,15.08841151,0.0001104,53.2176,291.6568,60.4033,299.7069,8.831e-05,1.118e-05,0.0,0 STARLINK-5059,1 53912U 22119AC  23046.91206404  .00001118  00000-0  88310-4 0  9991,2 53912  53.2176 291.6568 0001104  60.4033 299.7069 15.08841151 23084,6917.877,95.437,540.506,538.978,0.0
53912.0,STARLINK-5059,PAYLOAD,2023-02-16 10:36:26,15.08860024,0.0001679,53.2157,289.2814,74.5279,285.5899,0.00036234,5.486e-05,0.0,0 STARLINK-5059,1 53912U 22119AC  23047.44197337  .00005486  00000-0  36234-3 0  9993,2 53912  53.2157 289.2814 0001679  74.5279 285.5899 15.08860024 22741,6917.819,95.436,540.846,538.523,0.0
53912.0,STARLINK-5059,PAYLOAD,2023-02-16 21:44:09,15.08833569,0.0001255,53.2163,287.1976,75.8406,284.2726,-3.433e-05,-8.34e-06,0.0,0 STARLINK-5059,1 53912U 22119AC  23047.90566500 -.00000834  00000-0 -34330-4 0  9996,2 53912  53.2163 287.1976 0001255  75.8406 284.2726 15.08833569 23234,6917.9,95.438,540.633,538.897,0.0
53912.0,STARLINK-5059,PAYLOAD,2023-02-16 23:19:32,15.08835044,0.000121,53.2168,286.9008,76.3777,283.735,-5.4757e-05,-1.159e-05,0.0,0 STARLINK-5059,1 53912U 22119AC  23047.97190299 -.00001159  00000-0 -54757-4 0  9997,2 53912  53.2168 286.9008 0001210  76.3777 283.7350 15.08835044 22821,6917.896,95.438,540.598,538.923,0.0
53912.0,STARLINK-5059,PAYLOAD,2023-02-17 12:02:37,15.08831043,0.0001358,53.2151,284.5212,90.6953,269.4194,-1.3924e-05,-5.09e-06,0.0,0 STARLINK-5059,1 53912U 22119AC  23048.50182662 -.00000509  00000-0 -13924-4 0  9991,2 53912  53.2151 284.5212 0001358  90.6953 269.4194 15.08831043 23320,6917.908,95.438,540.712,538.833,0.0
53912.0,STARLINK-5059,PAYLOAD,2023-02-17 21:34:57,15.08828253,9.99e-05,53.2165,282.7353,99.5933,260.5172,0.00015851,2.235e-05,0.0,0 STARLINK-5059,1 53912U 22119AC  23048.89927150  .00002235  00000-0  15851-3 0  9998,2 53912  53.2165 282.7353 0000999  99.5933 260.5172 15.08828253 23380,6917.916,95.438,540.472,539.09,0.0
53912.0,STARLINK-5059,PAYLOAD,2023-02-18 10:18:02,15.08830169,0.0001134,53.2162,280.3571,78.7881,281.3239,0.00032386,4.869e-05,0.0,0 STARLINK-5059,1 53912U 22119AC  23049.42919246  .00004869  00000-0  32386-3 0  9992,2 53912  53.2162 280.3571 0001134  78.7881 281.3239 15.08830169 23043,6917.91,95.438,540.56,538.991,0.0
53912.0,STARLINK-5059,PAYLOAD,2023-02-19 14:54:58,15.08850102,0.0001205,53.2155,275.0051,77.6923,282.4204,0.00033439,5.039e-05,0.0,0 STARLINK-5059,1 53912U 22119AC  23050.62150475  .00005039  00000-0  33439-3 0  9997,2 53912  53.2155 275.0051 0001205  77.6923 282.4204 15.08850102 23226,6917.85,95.437,540.548,538.881,0.0
53912.0,STARLINK-5059,PAYLOAD,2023-02-19 21:16:30,15.08855567,0.000119,53.2155,273.8154,79.6046,280.5081,0.00042622,6.505e-05,0.0,0 STARLINK-5059,1 53912U 22119AC  23050.88646201  .00006505  00000-0  42622-3 0  9995,2 53912  53.2155 273.8154 0001190  79.6046 280.5081 15.08855567 23689,6917.833,95.437,540.521,538.875,0.0
53912.0,STARLINK-5059,PAYLOAD,2023-02-20 21:07:17,15.08850608,0.0001108,53.215,269.3545,83.597,276.5148,0.0001524,2.139e-05,0.0,0 STARLINK-5059,1 53912U 22119AC  23051.88005824  .00002139  00000-0  15240-3 0  9991,2 53912  53.2150 269.3545 0001108  83.5970 276.5148 15.08850608 23418,6917.848,95.437,540.479,538.946,0.0
53912.0,STARLINK-5059,PAYLOAD,2023-02-21 09:50:22,15.08845983,9.97e-05,53.2155,266.9757,82.5811,277.5294,6.7216e-05,7.82e-06,0.0,0 STARLINK-5059,1 53912U 22119AC  23052.40997776  .00000782  00000-0  67216-4 0  9999,2 53912  53.2155 266.9757 0000997  82.5811 277.5294 15.08845983 23917,6917.862,95.437,540.417,539.037,0.0
53912.0,STARLINK-5059,PAYLOAD,2023-02-21 19:22:40,15.0884298,0.0001089,53.2152,265.1902,87.5041,272.6076,-7.8664e-06,-4.13e-06,0.0,0 STARLINK-5059,1 53912U 22119AC  23052.80741831 -.00000413  00000-0 -78664-5 0  9995,2 53912  53.2152 265.1902 0001089  87.5041 272.6076 15.08842980 23558,6917.871,95.437,540.49,538.983,0.0
53912.0,STARLINK-5059,PAYLOAD,2023-02-21 20:58:03,15.08846875,0.0001021,53.2154,264.8943,81.1569,278.9539,3.0747e-05,2.02e-06,0.0,0 STARLINK-5059,1 53912U 22119AC  23052.87365640  .00000202  00000-0  30747-4 0  9995,2 53912  53.2154 264.8943 0001021  81.1569 278.9539 15.08846875 23989,6917.859,95.437,540.431,539.018,0.0
53912.0,STARLINK-5059,PAYLOAD,2023-02-22 09:41:09,15.08837071,0.0001016,53.2149,262.514,76.2472,283.8633,-1.1076e-05,-4.64e-06,0.0,0 STARLINK-5059,1 53912U 22119AC  23053.40358091 -.00000464  00000-0 -11076-4 0  9993,2 53912  53.2149 262.5140 0001016  76.2472 283.8633 15.08837071 24067,6917.889,95.438,540.457,539.051,0.0
53912.0,STARLINK-5059,PAYLOAD,2023-02-22 16:02:41,15.08836114,9.83e-05,53.2153,261.3254,76.3928,283.7174,-3.029e-05,-7.7e-06,0.0,0 STARLINK-5059,1 53912U 22119AC  23053.66854157 -.00000770  00000-0 -30290-4 0  9994,2 53912  53.2153 261.3254 0000983  76.3928 283.7174 15.08836114 23687,6917.892,95.438,540.437,539.077,0.0
53912.0,STARLINK-5059,PAYLOAD,2023-02-22 20:48:51,15.08837791,9.69e-05,53.2153,260.4333,75.8919,284.2181,7.9983e-07,-2.75e-06,0.0,0 STARLINK-5059,1 53912U 22119AC  23053.86726094 -.00000275  00000-0  79983-6 0  9997,2 53912  53.2153 260.4333 0000969  75.8919 284.2181 15.08837791 24130,6917.887,95.438,540.422,539.082,0.0
53912.0,STARLINK-5059,PAYLOAD,2023-02-23 12:42:42,15.0885013,9.22e-05,53.2159,257.4589,67.6569,292.4521,-0.00013337,-2.41e-05,0.0,0 STARLINK-5059,1 53912U 22119AC  23054.52966086 -.00002410  00000-0 -13337-3 0  9990,2 53912  53.2159 257.4589 0000922  67.6569 292.4521 15.08850130 24236,6917.849,95.437,540.352,539.077,0.0
53912.0,STARLINK-5059,PAYLOAD,2023-02-23 20:39:38,15.08831795,0.0001034,53.2163,255.9731,80.9847,279.1262,0.00021444,3.126e-05,0.0,0 STARLINK-5059,1 53912U 22119AC  23054.86086482  .00003126  00000-0  21444-3 0  9991,2 53912  53.2163 255.9731 0001034  80.9847 279.1262 15.08831795 24280,6917.905,95.438,540.486,539.055,0.0
53912.0,STARLINK-5059,PAYLOAD,2023-02-23 23:50:24,15.08846366,0.0001112,53.216,255.3773,76.283,283.8286,0.00010475,1.38e-05,0.0,0 STARLINK-5059,1 53912U 22119AC  23054.99333801  .00001380  00000-0  10475-3 0  9997,2 53912  53.2160 255.3773 0001112  76.2830 283.8286 15.08846366 23887,6917.861,95.437,540.495,538.957,0.0
53912.0,STARLINK-5059,PAYLOAD,2023-02-24 12:33:29,15.08884853,7.78e-05,53.2159,252.9991,71.1509,288.9568,-0.00066127,-0.00010809,0.0,0 STARLINK-5059,1 53912U 22119AC  23055.52325630 -.00010809  00000-0 -66127-3 0  9991,2 53912  53.2159 252.9991 0000778  71.1509 288.9568 15.08884853 24382,6917.743,95.435,540.146,539.07,0.0
53912.0,STARLINK-5059,PAYLOAD,2023-02-24 20:30:25,15.08831277,0.0001057,53.2161,251.5122,82.4389,277.6723,0.00017536,2.504e-05,0.0,0 STARLINK-5059,1 53912U 22119AC  23055.85446757  .00002504  00000-0  17536-3 0  9992,2 53912  53.2161 251.5122 0001057  82.4389 277.6723 15.08831277 24018,6917.907,95.438,540.503,539.041,0.0
53912.0,STARLINK-5059,PAYLOAD,2023-02-25 12:24:17,15.08835097,0.0001105,53.216,248.5384,81.5089,278.6028,4.2511e-05,3.89e-06,0.0,0 STARLINK-5059,1 53912U 22119AC  23056.51687006  .00000389  00000-0  42511-4 0  9991,2 53912  53.2160 248.5384 0001105  81.5089 278.6028 15.08835097 24534,6917.895,95.438,540.525,538.996,0.0
53912.0,STARLINK-5059,PAYLOAD,2023-02-25 20:21:13,15.0883784,0.0001066,53.2161,247.0512,81.6177,278.4936,4.3458e-05,4.04e-06,0.0,0 STARLINK-5059,1 53912U 22119AC  23056.84806906  .00000404  00000-0  43458-4 0  9998,2 53912  53.2161 247.0512 0001066  81.6177 278.4936 15.08837840 24586,6917.887,95.438,540.489,539.015,0.0
53912.0,STARLINK-5059,PAYLOAD,2023-02-26 05:53:31,15.08846847,0.0001085,53.2162,245.2667,79.8353,280.2761,6.6741e-05,7.75e-06,0.0,0 STARLINK-5059,1 53912U 22119AC  23057.24550274  .00000775  00000-0  66741-4 0  9998,2 53912  53.2162 245.2667 0001085  79.8353 280.2761 15.08846847 24229,6917.859,95.437,540.475,538.974,0.0
53912.0,STARLINK-5059,PAYLOAD,2023-02-26 12:15:03,15.08844763,0.0001063,53.2162,244.0771,81.8506,278.2607,0.0001456,2.03e-05,0.0,0 STARLINK-5059,1 53912U 22119AC  23057.51046196  .00002030  00000-0  14560-3 0  9998,2 53912  53.2162 244.0771 0001063  81.8506 278.2607 15.08844763 24682,6917.866,95.437,540.466,538.995,0.0
53912.0,STARLINK-5059,PAYLOAD,2023-02-26 17:01:12,15.088494,0.0001054,53.2162,243.185,81.7328,278.3784,0.00018805,2.707e-05,0.0,0 STARLINK-5059,1 53912U 22119AC  23057.70917782  .00002707  00000-0  18805-3 0  9994,2 53912  53.2162 243.1850 0001054  81.7328 278.3784 15.08849400 24715,6917.852,95.437,540.446,538.988,0.0
53912.0,STARLINK-5059,PAYLOAD,2023-02-27 12:05:51,15.08841612,0.0001133,53.2157,239.6158,100.1081,260.0039,0.00011424,1.531e-05,0.0,0 STARLINK-5059,1 53912U 22119AC  23058.50406289  .00001531  00000-0  11424-3 0  9992,2 53912  53.2157 239.6158 0001133 100.1081 260.0039 15.08841612 24415,6917.875,95.437,540.524,538.957,0.0
53912.0,STARLINK-5059,PAYLOAD,2023-02-27 18:27:23,15.0884944,0.0001167,53.2147,238.4274,92.7415,267.3711,0.00021147,3.08e-05,0.0,0 STARLINK-5059,1 53912U 22119AC  23058.76901923  .00003080  00000-0  21147-3 0  9999,2 53912  53.2147 238.4274 0001167  92.7415 267.3711 15.08849440 24878,6917.852,95.437,540.524,538.909,0.0
53912.0,STARLINK-5059,PAYLOAD,2023-02-28 15:07:24,15.08830635,0.0001041,53.2157,234.559,95.6905,264.4206,-9.8217e-05,-1.85e-05,0.0,0 STARLINK-5059,1 53912U 22119AC  23059.63015038 -.00001850  00000-0 -98217-4 0  9997,2 53912  53.2157 234.5590 0001041  95.6905 264.4206 15.08830635 24585,6917.909,95.438,540.494,539.054,0.0
53912.0,STARLINK-5059,PAYLOAD,2023-02-28 18:18:11,15.08828529,0.0001112,53.2155,233.9668,71.6941,288.4172,-0.00015098,-2.689e-05,0.0,0 STARLINK-5059,1 53912U 22119AC  23059.76263332 -.00002689  00000-0 -15098-3 0  9999,2 53912  53.2155 233.9668 0001112  71.6941 288.4172 15.08828529 25022,6917.915,95.438,540.55,539.011,0.0
